ONEWEB-0605             
1 54669U 22166AD  26171.24150764  .00000038  00000+0  60808-4 0  9999
2 54669  87.9250 243.3794 0002480  87.6474 272.4943 13.21826612171917
ONEWEB-0606             
1 54670U 22166AE  26171.26337213 -.00000119  00000+0 -31907-3 0  9998
2 54670  87.9251 243.3875 0002035 103.3875 256.7486 13.21826284171975
ONEWEB-0607             
1 54671U 22166AF  26171.45681286  .00000072  00000+0  14235-3 0  9993
2 54671  87.9258 243.3200 0001942  95.2148 264.9208 13.21824699171974
ONEWEB-0608             
1 54672U 22166AG  26171.46352833  .00000018  00000+0  11549-4 0  9994
2 54672  87.9266 243.3159 0002222  85.5555 274.5832 13.21827710171981
ONEWEB-0610             
1 54673U 22166AH  26171.44335565  .00000010  00000+0 -83355-5 0  9994
2 54673  87.9252 243.3335 0001993  80.9438 279.1921 13.21824254171885
ONEWEB-0611             
1 54674U 22166AJ  26171.43660913  .00000052  00000+0  94741-4 0  9997
2 54674  87.9250 243.3308 0002057 102.5023 257.6341 13.21825201171876
ONEWEB-0612             
1 54675U 22166AK  26171.45009088  .00000072  00000+0  14253-3 0  9991
2 54675  87.9263 243.3240 0002068  93.9905 266.1465 13.21825448171864
ONEWEB-0615             
1 54676U 22166AL  26171.20281603 -.00000054  00000+0 -16146-3 0  9995
2 54676  87.9253 243.3874 0001898 106.0848 254.0496 13.21826774171840
ONEWEB-0655             
1 54677U 22166AM  26171.48204844  .00000116  00000+0  24844-3 0  9999
2 54677  87.9253 243.3330 0001782  95.6462 264.4875 13.21827641171878
ONEWEB-0659             
1 54678U 22166AN  26171.19606620  .00001151  00000+0  27540-2 0  9991
2 54678  87.9247 243.3898 0002007  99.8391 260.2969 13.21836177171927
ONEWEB-0685             
1 54679U 22166AP  26171.27181766 -.00000051  00000+0 -15587-3 0  9999
2 54679  87.9246 243.3668 0001972  86.8390 273.2969 13.21847635171821
ONEWEB-0712             
1 54680U 22166AQ  26171.40388657 -.00000021  00000+0 -87661-4 0  9994
2 54680  87.9097 228.1360 0001550  94.2954 265.8354 13.16594454172488
ONEWEB-0714             
1 54681U 22166AR  26171.42821302 -.00000016  00000+0 -70460-4 0  9999
2 54681  87.9250 243.3333 0001717 100.7863 259.3464 13.21825048171960
ONEWEB-0532             
1 55140U 23004A   26171.44964485 -.00009935  00000+0 -25618-1 0  9995
2 55140  87.9130   5.2153 0003045  97.4835 262.6643 13.17732039168010
ONEWEB-0533             
1 55141U 23004B   26171.43065174 -.00000114  00000+0 -35266-3 0  9994
2 55141  87.8948 350.0251 0001790  85.8454 274.2879 13.12443054168482
ONEWEB-0541             
1 55142U 23004C   26171.31045365 -.00000626  00000+0 -18020-2 0  9998
2 55142  87.8896  20.4363 0001953  90.4741 269.6611 13.11417269166353
ONEWEB-0543             
1 55143U 23004D   26171.42656328  .00000057  00000+0  11249-3 0  9991
2 55143  87.9160 334.8247 0001637  95.0837 265.0482 13.18685541170121
ONEWEB-0544             
1 55144U 23004E   26171.41981973  .00000038  00000+0  64789-4 0  9995
2 55144  87.9162 334.8257 0001788 100.0732 260.0602 13.18685759170123
ONEWEB-0560             
1 55145U 23004F   26171.41307080  .00000070  00000+0  14371-3 0  9994
2 55145  87.9164 334.8164 0001686 101.6104 258.5217 13.18686867170136
ONEWEB-0565             
1 55146U 23004G   26171.40633360  .00000087  00000+0  18666-3 0  9996
2 55146  87.9154 334.8453 0002134 103.2410 256.8960 13.18685698170120
ONEWEB-0567             
1 55147U 23004H   26171.39959036  .00000084  00000+0  18118-3 0  9995
2 55147  87.9165 334.8309 0001967 104.0571 256.0779 13.18686320170126
ONEWEB-0569             
1 55148U 23004J   26171.43611106  .00000155  00000+0  38921-3 0  9997
2 55148  87.8963 319.5732 0001927 124.1039 236.0273 13.13470546170606
ONEWEB-0570             
1 55149U 23004K   26171.39115062  .00000067  00000+0  13634-3 0  9999
2 55149  87.9164 334.8306 0002250  93.3163 266.8227 13.18685505170117
ONEWEB-0571             
1 55150U 23004L   26171.46027804  .00000031  00000+0  45693-4 0  9997
2 55150  87.9163 334.8160 0002448 123.7820 236.3546 13.18688732170136
ONEWEB-0572             
1 55151U 23004M   26171.48084687  .00000031  00000+0  45857-4 0  9994
2 55151  87.9132   5.2100 0001987  94.0022 266.1336 13.17648705167912
ONEWEB-0573             
1 55152U 23004N   26171.45353797  .00000007  00000+0 -14249-4 0  9998
2 55152  87.9165 334.8189 0002334 113.7828 246.3549 13.18686575170128
ONEWEB-0588             
1 55153U 23004P   26171.44679610  .00000043  00000+0  76050-4 0  9990
2 55153  87.9161 334.8204 0002365  94.4912 265.6490 13.18685632170128
ONEWEB-0598             
1 55154U 23004Q   26171.28841907 -.00000222  00000+0 -66157-3 0  9990
2 55154  87.8880  20.4511 0001796 109.9391 250.1931 13.11414632166302
ONEWEB-0599             
1 55155U 23004R   26171.44203694  .00000029  00000+0  42198-4 0  9997
2 55155  87.9130   5.2163 0001675  92.0376 268.0947 13.17648990167912
ONEWEB-0614             
1 55156U 23004S   26171.28333309  .00000029  00000+0  46070-4 0  9990
2 55156  87.8881  20.4610 0001992  81.9265 278.2089 13.11414470166240
