OBJECT_NAME,OBJECT_ID,EPOCH,MEAN_MOTION,ECCENTRICITY,INCLINATION,RA_OF_ASC_NODE,ARG_OF_PERICENTER,MEAN_ANOMALY,EPHEMERIS_TYPE,CLASSIFICATION_TYPE,NORAD_CAT_ID,ELEMENT_SET_NO,REV_AT_EPOCH,BSTAR,MEAN_MOTION_DOT,MEAN_MOTION_DDOT
ONEWEB-0605,2022-166AD,2026-06-20T05:47:46.260096,13.21826612,.000248,87.9250,243.3794,87.6474,272.4943,0,U,54669,999,17191,.60808E-4,.38E-6,0
ONEWEB-0606,2022-166AE,2026-06-20T06:19:15.352032,13.21826284,.0002035,87.9251,243.3875,103.3875,256.7486,0,U,54670,999,17197,-.31907E-3,-.119E-5,0
ONEWEB-0607,2022-166AF,2026-06-20T10:57:48.631104,13.21824699,.0001942,87.9258,243.3200,95.2148,264.9208,0,U,54671,999,17197,.14235E-3,.72E-6,0
ONEWEB-0608,2022-166AG,2026-06-20T11:07:28.847712,13.21827710,.0002222,87.9266,243.3159,85.5555,274.5832,0,U,54672,999,17198,.11549E-4,.18E-6,0
ONEWEB-0610,2022-166AH,2026-06-20T10:38:25.928160,13.21824254,.0001993,87.9252,243.3335,80.9438,279.1921,0,U,54673,999,17188,-.83355E-5,.1E-6,0
ONEWEB-0611,2022-166AJ,2026-06-20T10:28:43.028832,13.21825201,.0002057,87.9250,243.3308,102.5023,257.6341,0,U,54674,999,17187,.94741E-4,.52E-6,0
ONEWEB-0612,2022-166AK,2026-06-20T10:48:07.852032,13.21825448,.0002068,87.9263,243.3240,93.9905,266.1465,0,U,54675,999,17186,.14253E-3,.72E-6,0
ONEWEB-0615,2022-166AL,2026-06-20T04:52:03.304992,13.21826774,.00018988,87.9253,243.3874,106.0848,254.0496,0,U,54676,999,17184,-.16145524E-3,-.54E-6,0
ONEWEB-0655,2022-166AM,2026-06-20T11:34:08.985216,13.21827641,.0001782,87.9253,243.3330,95.6462,264.4875,0,U,54677,999,17187,.24844E-3,.116E-5,0
ONEWEB-0659,2022-166AN,2026-06-20T04:42:20.119680,13.21836177,.00020072,87.9247,243.3898,99.8391,260.2969,0,U,54678,999,17192,.27539773E-2,.1151E-4,0
ONEWEB-0685,2022-166AP,2026-06-20T06:31:25.045824,13.21847635,.0001972,87.9246,243.3668,86.8390,273.2969,0,U,54679,999,17182,-.15587E-3,-.51E-6,0
ONEWEB-0712,2022-166AQ,2026-06-20T09:41:35.799648,13.16594454,.000155,87.9097,228.1360,94.2954,265.8354,0,U,54680,999,17248,-.87661E-4,-.21E-6,0
ONEWEB-0714,2022-166AR,2026-06-20T10:16:37.604928,13.21825048,.0001717,87.9250,243.3333,100.7863,259.3464,0,U,54681,999,17196,-.7046E-4,-.16E-6,0
ONEWEB-0532,2023-004A,2026-06-20T10:47:29.315040,13.17732039,.0003045,87.9130,5.2153,97.4835,262.6643,0,U,55140,999,16801,-.25618E-1,-.9935E-4,0
ONEWEB-0533,2023-004B,2026-06-20T10:20:08.310336,13.12443054,.000179,87.8948,350.0251,85.8454,274.2879,0,U,55141,999,16848,-.35266E-3,-.114E-5,0
ONEWEB-0541,2023-004C,2026-06-20T07:27:03.195360,13.11417269,.0001953,87.8896,20.4363,90.4741,269.6611,0,U,55142,999,16635,-.1802E-2,-.626E-5,0
ONEWEB-0543,2023-004D,2026-06-20T10:14:15.067392,13.18685541,.0001637,87.9160,334.8247,95.0837,265.0482,0,U,55143,999,17012,.11249E-3,.57E-6,0
ONEWEB-0544,2023-004E,2026-06-20T10:04:32.424672,13.18685759,.0001788,87.9162,334.8257,100.0732,260.0602,0,U,55144,999,17012,.64789E-4,.38E-6,0
ONEWEB-0560,2023-004F,2026-06-20T09:54:49.317120,13.18686867,.0001686,87.9164,334.8164,101.6104,258.5217,0,U,55145,999,17013,.14371E-3,.7E-6,0
ONEWEB-0565,2023-004G,2026-06-20T09:45:07.223040,13.18685698,.0002134,87.9154,334.8453,103.2410,256.8960,0,U,55146,999,17012,.18666E-3,.87E-6,0
ONEWEB-0567,2023-004H,2026-06-20T09:35:24.607104,13.18686320,.0001967,87.9165,334.8309,104.0571,256.0779,0,U,55147,999,17012,.18118E-3,.84E-6,0
ONEWEB-0569,2023-004J,2026-06-20T10:27:59.995584,13.13470546,.0001927,87.8963,319.5732,124.1039,236.0273,0,U,55148,999,17060,.38921E-3,.155E-5,0
ONEWEB-0570,2023-004K,2026-06-20T09:23:15.413568,13.18685505,.000225,87.9164,334.8306,93.3163,266.8227,0,U,55149,999,17011,.13634E-3,.67E-6,0
ONEWEB-0571,2023-004L,2026-06-20T11:02:48.022656,13.18688732,.0002448,87.9163,334.8160,123.7820,236.3546,0,U,55150,999,17013,.45693E-4,.31E-6,0
ONEWEB-0572,2023-004M,2026-06-20T11:32:25.169568,13.17648705,.0001987,87.9132,5.2100,94.0022,266.1336,0,U,55151,999,16791,.45857E-4,.31E-6,0
ONEWEB-0573,2023-004N,2026-06-20T10:53:05.680608,13.18686575,.0002334,87.9165,334.8189,113.7828,246.3549,0,U,55152,999,17012,-.14249E-4,.7E-7,0
ONEWEB-0588,2023-004P,2026-06-20T10:43:23.183040,13.18685632,.0002365,87.9161,334.8204,94.4912,265.6490,0,U,55153,999,17012,.7605E-4,.43E-6,0
ONEWEB-0598,2023-004Q,2026-06-20T06:55:19.407648,13.11414632,.0001796,87.8880,20.4511,109.9391,250.1931,0,U,55154,999,16630,-.66157E-3,-.222E-5,0
ONEWEB-0599,2023-004R,2026-06-20T10:36:31.991616,13.17648990,.0001675,87.9130,5.2163,92.0376,268.0947,0,U,55155,999,16791,.42198E-4,.29E-6,0
ONEWEB-0614,2023-004S,2026-06-20T06:47:59.978976,13.11414470,.0001992,87.8881,20.4610,81.9265,278.2089,0,U,55156,999,16624,.4607E-4,.29E-6,0
